CHUANGXIN 1-02 (CX-1-02)
1 33434U 08056B   26166.96823653  .00000204  00000+0  95515-4 0  9993
2 33434  98.6133 193.2470 0014950 139.9248 220.3040 14.30153346918447
STARS (KUKAI)           
1 33498U 09002G   26166.81416505  .00003328  00000+0  30409-3 0  9993
2 33498  98.1558 114.0669 0008734 162.4092 197.7432 14.95746211938270
KKS-1 (KISEKI)          
1 33499U 09002H   26166.90727384  .00001187  00000+0  15247-3 0  9998
2 33499  98.1190  89.3292 0006604 300.8466  59.2097 14.83121349936000
UK-DMC 2                
1 35683U 09041C   26166.93779831  .00000806  00000+0  12420-3 0  9992
2 35683  97.8833 301.9343 0001185  77.2299 282.9044 14.76025354906381
OCEANSAT-2              
1 35931U 09051A   26166.91280178 -.00000112  00000+0 -50896-4 0  9990
2 35931  98.2324 153.8913 0015109 239.8308 120.1362 13.99664614879154
SWISSCUBE               
1 35932U 09051B   26166.73189433  .00000837  00000+0  17488-3 0  9994
2 35932  98.4037  74.5948 0005872 208.1158 151.9727 14.62479266888945
BEESAT-1                
1 35933U 09051C   26166.67211925  .00000696  00000+0  14948-3 0  9991
2 35933  98.3966  74.1727 0004143 222.7954 137.2924 14.61718328888965
ITUPSAT1                
1 35935U 09051E   26166.73019578  .00000641  00000+0  14235-3 0  9999
2 35935  98.4050  73.4251 0006212 239.3695 120.6892 14.60438795888529
DMSP 5D-3 F18 (USA 210) 
1 35951U 09057A   26166.93890259  .00000204  00000+0  12874-3 0  9990
2 35951  98.9037 147.7107 0009880 253.5128 106.4959 14.14896073859413
PROBA-2                 
1 36037U 09059B   26166.93373761  .00000150  00000+0  45471-4 0  9992
2 36037  98.2449 350.3039 0011985 286.4316  73.5564 14.54861986881340
YAOGAN-7                
1 36110U 09069A   26166.93789735  .00000412  00000+0  64151-4 0  9994
2 36110  98.0074  52.8126 0025634  45.5692 314.7610 14.78008724889442
XIWANG-1 (HOPE-1)       
1 36122U 09072B   26166.87589806 -.00000473  00000+0 -11213-2 0  9999
2 36122 100.4024 120.7289 0006871 234.8377 125.2093 13.16437301792832
COSMOS 2463             
1 36519U 10017A   26166.74180087  .00000049  00000+0  37404-4 0  9993
2 36519  82.9606 250.7676 0037277 132.7488 340.7024 13.71665551807734
CARTOSAT-2B             
1 36795U 10035A   26166.98628856  .00000832  00000+0  12065-3 0  9991
2 36795  97.9956 217.5436 0011086 187.6162 172.4882 14.78661319859675
TISAT 1                 
1 36799U 10035E   26166.81052109  .00016585  00000+0  54469-3 0  9995
2 36799  98.0713 113.2374 0001201 169.6486 190.4779 15.31663542867496
YAOGAN-10               
1 36834U 10038A   26167.00307785  .00000699  00000+0  87507-4 0  9992
2 36834  97.8973 190.4163 0001669  86.3062 330.6619 14.85343907857035
SHIJIAN-6 04B (SJ-6 04B)
1 37180U 10051B   26166.95514721  .00000999  00000+0  86790-4 0  9991
2 37180  97.8678 172.3522 0008139 318.6313  41.4292 14.99311235855495
FENGYUN 3B              
1 37214U 10059A   26166.91139605 -.00000137  00000+0 -47387-4 0  9992
2 37214  98.9623 212.9203 0021837 187.6466 345.4289 14.14840935807249
COSMO-SKYMED 4          
1 37216U 10060A   26166.95852049  .00000796  00000+0  10658-3 0  9993
2 37216  97.8879 350.5763 0001438  81.3276 278.8100 14.82154992844389
O/OREOS (USA 219)       
1 37224U 10062C   26166.92372863  .00002002  00000+0  19464-3 0  9998
2 37224  71.9714  83.2015 0012521  65.8331 294.4147 14.93740213116457
RESOURCESAT-2           
1 37387U 11015A   26166.89250391  .00000055  00000+0  45211-4 0  9990
2 37387  98.7644 234.3433 0010178 259.6464 100.3566 14.21606123785998
YOUTHSAT                
1 37388U 11015B   26166.96484130  .00000139  00000+0  76000-4 0  9992
2 37388  98.3682 141.0740 0014301 350.6970  78.7544 14.25629848787469
APRIZESAT 6             
1 37793U 11044F   26166.99546477  .00000651  00000+0  98906-4 0  9998
2 37793  98.2365  77.4707 0044496  89.7335 333.6407 14.76914317796975
JUGNU                   
1 37839U 11058B   26166.12908786  .00000399  00000+0  69103-4 0  9990
2 37839  19.9618 320.9329 0018627  53.5996 113.0994 14.13776231758737
SRMSAT                  
1 37841U 11058D   26166.09346315  .00000356  00000+0  49299-4 0  9990
2 37841  19.9720  72.1399 0011838 180.5594 207.7984 14.11575160757521
